NORAD_CAT_ID,OBJECT_NAME,OBJECT_TYPE,EPOCH,MEAN_MOTION,ECCENTRICITY,INCLINATION,RA_OF_ASC_NODE,ARG_OF_PERICENTER,MEAN_ANOMALY,BSTAR,MEAN_MOTION_DOT,MEAN_MOTION_DDOT,TLE_LINE0,TLE_LINE1,TLE_LINE2,SEMIMAJOR_AXIS,PERIOD,APOGEE,PERIGEE,DECAYED
56790.0,STARLINK-6345,PAYLOAD,2024-04-11 04:05:25,14.98337688,0.0002612,70.0019,263.1908,270.6445,89.4415,9.0847e-05,9.91e-06,0.0,0 STARLINK-6345,1 56790U 23078Z   24102.17043038  .00000991  00000-0  90847-4 0  9993,2 56790  70.0019 263.1908 0002612 270.6445  89.4415 14.98337688 49443,6950.169,96.107,573.85,570.219,0.0
56790.0,STARLINK-6345,PAYLOAD,2024-04-11 12:06:06,14.98319875,0.000317,70.0006,262.3522,263.0964,96.9834,-0.00016628,-2.076e-05,0.0,0 STARLINK-6345,1 56790U 23078Z   24102.50424631 -.00002076  00000-0 -16628-3 0  9994,2 56790  70.0006 262.3522 0003170 263.0964  96.9834 14.98319875 49495,6950.224,96.108,574.292,569.886,0.0
56790.0,STARLINK-6345,PAYLOAD,2024-04-11 13:42:15,14.98319314,0.0003097,70.0007,262.1817,265.0942,94.9863,-0.00015789,-1.976e-05,0.0,0 STARLINK-6345,1 56790U 23078Z   24102.57100695 -.00001976  00000-0 -15789-3 0  9997,2 56790  70.0007 262.1817 0003097 265.0942  94.9863 14.98319314 49248,6950.226,96.108,574.243,569.938,0.0
56790.0,STARLINK-6345,PAYLOAD,2024-04-11 20:06:47,14.98320495,0.0003013,70.0003,261.507,266.5179,93.5636,-0.00012992,-1.642e-05,0.0,0 STARLINK-6345,1 56790U 23078Z   24102.83804655 -.00001642  00000-0 -12992-3 0  9996,2 56790  70.0003 261.5070 0003013 266.5179  93.5636 14.98320495 49283,6950.222,96.108,574.181,569.993,0.0
56790.0,STARLINK-6345,PAYLOAD,2024-04-12 12:08:07,14.98339058,0.0002203,70.0005,259.8244,271.481,88.6096,-0.00029247,-3.581e-05,0.0,0 STARLINK-6345,1 56790U 23078Z   24103.50564317 -.00003581  00000-0 -29247-3 0  9994,2 56790  70.0005 259.8244 0002203 271.4810  88.6096 14.98339058 49645,6950.165,96.106,573.561,570.499,0.0
56790.0,STARLINK-6345,PAYLOAD,2024-04-12 13:44:15,14.98337668,0.0002306,70.001,259.6572,269.4662,90.6233,-0.00026628,-3.269e-05,0.0,0 STARLINK-6345,1 56790U 23078Z   24103.57240277 -.00003269  00000-0 -26628-3 0  9990,2 56790  70.0010 259.6572 0002306 269.4662  90.6233 14.98337668 49392,6950.169,96.107,573.637,570.431,0.0
56790.0,STARLINK-6345,PAYLOAD,2024-04-12 15:20:23,14.98337234,0.0002302,70.0008,259.4888,269.4736,90.6159,-0.00026851,-3.296e-05,0.0,0 STARLINK-6345,1 56790U 23078Z   24103.63916284 -.00003296  00000-0 -26851-3 0  9993,2 56790  70.0008 259.4888 0002302 269.4736  90.6159 14.98337234 49403,6950.171,96.107,573.635,570.436,0.0
56790.0,STARLINK-6345,PAYLOAD,2024-04-13 12:10:08,14.983199,0.0003119,70.0004,257.2991,265.4105,94.6698,0.00011959,1.334e-05,0.0,0 STARLINK-6345,1 56790U 23078Z   24104.50704096  .00001334  00000-0  11959-3 0  9998,2 56790  70.0004 257.2991 0003119 265.4105  94.6698 14.98319900 49797,6950.224,96.108,574.257,569.921,0.0
56790.0,STARLINK-6345,PAYLOAD,2024-04-13 13:46:16,14.98320048,0.000312,70.0004,257.1308,265.3908,94.6895,0.00011858,1.322e-05,0.0,0 STARLINK-6345,1 56790U 23078Z   24104.57380131  .00001322  00000-0  11858-3 0  9990,2 56790  70.0004 257.1308 0003120 265.3908  94.6895 14.98320048 49547,6950.224,96.108,574.257,569.92,0.0
56790.0,STARLINK-6345,PAYLOAD,2024-04-13 20:10:48,14.9832741,0.0003245,70.0002,256.4578,267.4949,92.5838,0.00013473,1.515e-05,0.0,0 STARLINK-6345,1 56790U 23078Z   24104.84083739  .00001515  00000-0  13473-3 0  9993,2 56790  70.0002 256.4578 0003245 267.4949  92.5838 14.98327410 49580,6950.201,96.107,574.321,569.811,0.0
56790.0,STARLINK-6345,PAYLOAD,2024-04-14 20:12:49,14.98336661,0.0002119,70.0014,253.9349,233.9161,126.1802,-0.00014386,-1.809e-05,0.0,0 STARLINK-6345,1 56790U 23078Z   24105.84224149 -.00001809  00000-0 -14386-3 0  9998,2 56790  70.0014 253.9349 0002119 233.9161 126.1802 14.98336661 49992,6950.172,96.107,573.51,570.565,0.0
56790.0,STARLINK-6345,PAYLOAD,2024-04-15 13:50:17,14.98357421,0.0002898,70.0015,252.0818,263.8133,96.2696,-0.00039816,-4.844e-05,0.0,0 STARLINK-6345,1 56790U 23078Z   24106.57659680 -.00004844  00000-0 -39816-3 0  9998,2 56790  70.0015 252.0818 0002898 263.8133  96.2696 14.98357421 49848,6950.108,96.105,573.987,569.959,0.0
56790.0,STARLINK-6345,PAYLOAD,2024-04-15 20:14:49,14.98347835,0.0002579,70.0016,251.4086,258.6513,101.4357,-0.00016839,-2.102e-05,0.0,0 STARLINK-6345,1 56790U 23078Z   24106.84363358 -.00002102  00000-0 -16839-3 0  9997,2 56790  70.0016 251.4086 0002579 258.6513 101.4357 14.98347835 50145,6950.138,96.106,573.795,570.21,0.0
56790.0,STARLINK-6345,PAYLOAD,2024-04-16 12:16:11,14.98328593,0.0002693,70.0019,249.7258,265.4951,94.5901,1.4636e-05,8.2e-07,0.0,0 STARLINK-6345,1 56790U 23078Z   24107.51124090  .00000082  00000-0  14636-4 0  9997,2 56790  70.0019 249.7258 0002693 265.4951  94.5901 14.98328593 50246,6950.197,96.107,573.934,570.191,0.0
56790.0,STARLINK-6345,PAYLOAD,2024-04-16 15:28:27,14.98331358,0.0002597,70.0019,249.3893,259.8151,100.2715,5.5013e-05,5.64e-06,0.0,0 STARLINK-6345,1 56790U 23078Z   24107.64475781  .00000564  00000-0  55013-4 0  9996,2 56790  70.0019 249.3893 0002597 259.8151 100.2715 14.98331358 50004,6950.189,96.107,573.859,570.249,0.0
56790.0,STARLINK-6345,PAYLOAD,2024-04-16 18:40:42,14.98335384,0.0002841,70.0012,249.0524,270.8094,89.2739,9.4308e-05,1.033e-05,0.0,0 STARLINK-6345,1 56790U 23078Z   24107.77827431  .00001033  00000-0  94308-4 0  9995,2 56790  70.0012 249.0524 0002841 270.8094  89.2739 14.98335384 50281,6950.176,96.107,574.016,570.067,0.0
56790.0,STARLINK-6345,PAYLOAD,2024-04-17 12:18:11,14.98331412,0.0002411,70.0021,247.2004,263.9742,96.1143,-4.7467e-05,-6.59e-06,0.0,0 STARLINK-6345,1 56790U 23078Z   24108.51263852 -.00000659  00000-0 -47467-4 0  9998,2 56790  70.0021 247.2004 0002411 263.9742  96.1143 14.98331412 50396,6950.189,96.107,573.729,570.378,0.0
56790.0,STARLINK-6345,PAYLOAD,2024-04-17 13:54:20,14.9833,0.0002716,70.0013,247.0314,267.284,92.8008,-4.6438e-05,-6.47e-06,0.0,0 STARLINK-6345,1 56790U 23078Z   24108.57939905 -.00000647  00000-0 -46438-4 0  9997,2 56790  70.0013 247.0314 0002716 267.2840  92.8008 14.98330000 50141,6950.193,96.107,573.946,570.17,0.0
56790.0,STARLINK-6345,PAYLOAD,2024-04-17 18:42:44,14.98330271,0.0003146,70.0008,246.5263,275.4206,84.6594,-5.0121e-05,-6.91e-06,0.0,0 STARLINK-6345,1 56790U 23078Z   24108.77967907 -.00000691  00000-0 -50121-4 0  9995,2 56790  70.0008 246.5263 0003146 275.4206  84.6594 14.98330271 50179,6950.192,96.107,574.244,569.871,0.0
56790.0,STARLINK-6345,PAYLOAD,2024-04-18 12:20:13,14.98320552,0.0002716,70.0016,244.6754,269.7649,90.3199,-6.6087e-05,-8.81e-06,0.0,0 STARLINK-6345,1 56790U 23078Z   24109.51404850 -.00000881  00000-0 -66087-4 0  9990,2 56790  70.0016 244.6754 0002716 269.7649  90.3199 14.98320552 50548,6950.222,96.108,573.975,570.199,0.0
56790.0,STARLINK-6345,PAYLOAD,2024-04-18 18:44:45,14.98328731,0.0002512,70.0034,244.0037,264.5474,95.5398,-2.1067e-05,-3.44e-06,0.0,0 STARLINK-6345,1 56790U 23078Z   24109.78108278 -.00000344  00000-0 -21067-4 0  9997,2 56790  70.0034 244.0037 0002512 264.5474  95.5398 14.98328731 50588,6950.197,96.107,573.808,570.316,0.0
56790.0,STARLINK-6345,PAYLOAD,2024-04-19 13:58:22,14.98327789,0.0002205,70.0027,241.9836,260.1827,99.9083,7.3746e-05,7.87e-06,0.0,0 STARLINK-6345,1 56790U 23078Z   24110.58220048  .00000787  00000-0  73746-4 0  9997,2 56790  70.0027 241.9836 0002205 260.1827  99.9083 14.98327789 50442,6950.2,96.107,573.597,570.532,0.0
56790.0,STARLINK-6345,PAYLOAD,2024-04-19 18:46:45,14.98337132,0.0002114,70.0035,241.4815,251.9478,108.1451,0.00014485,1.636e-05,0.0,0 STARLINK-6345,1 56790U 23078Z   24110.78247214  .00001636  00000-0  14485-3 0  9991,2 56790  70.0035 241.4815 0002114 251.9478 108.1451 14.98337132 50739,6950.171,96.107,573.505,570.567,0.0
56790.0,STARLINK-6345,PAYLOAD,2024-04-20 14:00:22,14.98338082,0.0002374,70.003,239.4601,258.31,101.7792,6.6307e-05,6.99e-06,0.0,0 STARLINK-6345,1 56790U 23078Z   24111.58359019  .00000699  00000-0  66307-4 0  9996,2 56790  70.0030 239.4601 0002374 258.3100 101.7792 14.98338082 50591,6950.168,96.106,573.683,570.383,0.0
56790.0,STARLINK-6345,PAYLOAD,2024-04-20 18:48:45,14.98366329,0.0001925,70.0028,238.9541,233.662,126.4361,-0.00024381,-3.003e-05,0.0,0 STARLINK-6345,1 56790U 23078Z   24111.78385732 -.00003003  00000-0 -24381-3 0  9998,2 56790  70.0028 238.9541 0001925 233.6620 126.4361 14.98366329 50882,6950.081,96.105,573.283,570.608,0.0
56790.0,STARLINK-6345,PAYLOAD,2024-04-21 14:02:24,14.98318552,0.000256,70.002,236.9344,259.4748,100.6123,-0.00024764,-3.045e-05,0.0,0 STARLINK-6345,1 56790U 23078Z   24112.58500994 -.00003045  00000-0 -24764-3 0  9997,2 56790  70.0020 236.9344 0002560 259.4748 100.6123 14.98318552 50746,6950.228,96.108,573.873,570.314,0.0
56790.0,STARLINK-6345,PAYLOAD,2024-04-21 18:50:48,14.9832895,0.0002834,70.0017,236.4311,254.2599,105.8247,-0.00014245,-1.792e-05,0.0,0 STARLINK-6345,1 56790U 23078Z   24112.78528046 -.00001792  00000-0 -14245-3 0  9997,2 56790  70.0017 236.4311 0002834 254.2599 105.8247 14.98328950 51032,6950.196,96.107,574.031,570.091,0.0
56790.0,STARLINK-6345,PAYLOAD,2024-04-22 10:52:09,14.98320236,0.0002648,70.0025,234.7476,258.5326,101.5536,-6.8963e-05,-9.15e-06,0.0,0 STARLINK-6345,1 56790U 23078Z   24113.45288520 -.00000915  00000-0 -68963-4 0  9995,2 56790  70.0025 234.7476 0002648 258.5326 101.5536 14.98320236 50876,6950.223,96.108,573.929,570.248,0.0
56790.0,STARLINK-6345,PAYLOAD,2024-04-22 17:16:40,14.98352551,0.0002417,70.0029,234.0748,251.4692,108.6205,-0.00045482,-5.518e-05,0.0,0 STARLINK-6345,1 56790U 23078Z   24113.71991522 -.00005518  00000-0 -45482-3 0  9991,2 56790  70.0029 234.0748 0002417 251.4692 108.6205 14.98352551 51177,6950.123,96.106,573.668,570.308,0.0
56790.0,STARLINK-6345,PAYLOAD,2024-04-23 12:30:18,14.98314942,0.0002563,70.0031,232.0548,255.1899,104.8976,0.00015415,1.746e-05,0.0,0 STARLINK-6345,1 56790U 23078Z   24114.52104590  .00001746  00000-0  15415-3 0  9992,2 56790  70.0031 232.0548 0002563 255.1899 104.8976 14.98314942 51296,6950.239,96.108,573.886,570.323,0.0
